{"type":"FeatureCollection","features":[{"type":"Feature","properties":{"official":false,"updated":"2026-10-05","kind":"route","name":"Ruta de evacuación de referencia","description":"La Esmeralda → casco urbano de Tocancipá · 5.1 km por vías existentes.","source":"Trazado por la red vial de OpenStreetMap (OSRM). Debe validarse contra el PMGRD."},"geometry":{"type":"LineString","coordinates":[[-73.8924,4.96011],[-73.89253,4.96013],[-73.89275,4.96011],[-73.89291,4.96013],[-73.89306,4.96019],[-73.89328,4.96037],[-73.89386,4.96089],[-73.89396,4.961],[-73.89411,4.96134],[-73.89437,4.96186],[-73.89447,4.9623],[-73.89451,4.96259],[-73.89455,4.9627],[-73.89461,4.96274],[-73.89466,4.96275],[-73.8947,4.96274],[-73.89475,4.9627],[-73.8948,4.96264],[-73.89489,4.96234],[-73.89501,4.96153],[-73.89503,4.96149],[-73.89507,4.96146],[-73.89511,4.96147],[-73.89514,4.96149],[-73.89527,4.96169],[-73.89539,4.96185],[-73.89549,4.96197],[-73.89565,4.9621],[-73.89623,4.96241],[-73.89669,4.96266],[-73.89704,4.96284],[-73.8976,4.96324],[-73.89764,4.96331],[-73.89765,4.96339],[-73.89764,4.96345],[-73.89752,4.9637],[-73.89751,4.96376],[-73.8975,4.96386],[-73.89749,4.96392],[-73.89747,4.96397],[-73.89746,4.96399],[-73.89744,4.96399],[-73.89737,4.96398],[-73.89716,4.96392],[-73.89694,4.96389],[-73.89678,4.96388],[-73.89668,4.96391],[-73.89659,4.96395],[-73.89654,4.96401],[-73.89655,4.96411],[-73.89657,4.96427],[-73.89679,4.96448],[-73.89723,4.96489],[-73.89725,4.9649],[-73.89727,4.96491],[-73.89735,4.96493],[-73.89753,4.96498],[-73.8976,4.96503],[-73.89767,4.9651],[-73.89777,4.96522],[-73.8979,4.96534],[-73.89806,4.96545],[-73.89815,4.96557],[-73.89827,4.96575],[-73.89838,4.96608],[-73.89853,4.9664],[-73.89871,4.9667],[-73.89875,4.96672],[-73.89878,4.96672],[-73.89883,4.96671],[-73.89885,4.96668],[-73.89887,4.96659],[-73.8991,4.96678],[-73.89918,4.96687],[-73.89925,4.96698],[-73.89933,4.96722],[-73.89947,4.96725],[-73.8996,4.96731],[-73.89969,4.96736],[-73.89977,4.96747],[-73.89989,4.96767],[-73.90002,4.96785],[-73.90007,4.96792],[-73.90017,4.96817],[-73.9007,4.96789],[-73.90103,4.96776],[-73.90132,4.96768],[-73.90161,4.96763],[-73.90178,4.96761],[-73.90197,4.96762],[-73.90227,4.96763],[-73.90334,4.96774],[-73.90341,4.96779],[-73.90344,4.96783],[-73.90345,4.96787],[-73.90345,4.96791],[-73.90344,4.96794],[-73.90344,4.96797],[-73.90342,4.96801],[-73.9034,4.96804],[-73.90329,4.96811],[-73.9031,4.9682],[-73.90282,4.96832],[-73.90187,4.96865],[-73.90018,4.96926],[-73.89973,4.96943],[-73.89928,4.96956],[-73.89878,4.96964],[-73.89836,4.96972],[-73.89788,4.9698],[-73.89768,4.96983],[-73.89755,4.96993],[-73.89747,4.97002],[-73.89743,4.97009],[-73.89743,4.97018],[-73.89746,4.97024],[-73.8975,4.97028],[-73.89756,4.97032],[-73.89762,4.97032],[-73.89774,4.97032],[-73.89787,4.9703],[-73.89813,4.97018],[-73.89845,4.97004],[-73.89899,4.96984],[-73.90069,4.96923],[-73.90193,4.96879],[-73.9029,4.96843],[-73.90323,4.96828],[-73.90417,4.96798],[-73.90426,4.96795],[-73.90436,4.96791],[-73.90456,4.96783],[-73.90466,4.96779],[-73.90726,4.96687],[-73.90748,4.96679],[-73.90779,4.96667],[-73.90793,4.96661],[-73.9086,4.96634],[-73.90894,4.9662],[-73.9095,4.96598],[-73.91014,4.9657],[-73.91058,4.9655],[-73.91133,4.96515],[-73.91162,4.965],[-73.91192,4.96486],[-73.91243,4.96463],[-73.9125,4.96459],[-73.91277,4.96448],[-73.9137,4.96405],[-73.91377,4.96416],[-73.91423,4.96454],[-73.91485,4.96503],[-73.91453,4.96541]]}},{"type":"Feature","properties":{"official":false,"updated":"2026-10-05","kind":"start","name":"Salida — La Esmeralda","description":"Inicio de la ruta.","source":"OpenStreetMap"},"geometry":{"type":"Point","coordinates":[-73.8924,4.96011]}},{"type":"Feature","properties":{"official":false,"updated":"2026-10-05","kind":"end","name":"Punto de encuentro — casco urbano","description":"Destino de referencia. Punto de encuentro y albergue por confirmar con el Comité.","source":"Por confirmar"},"geometry":{"type":"Point","coordinates":[-73.91453,4.96541]}}]}