{"type":"FeatureCollection","features":[{"type":"Feature","properties":{"official":false,"updated":"2026-10-05","kind":"zone","name":"Vereda La Esmeralda — zona de atención","description":"Área de referencia de 600 m alrededor del centro poblado. No es el límite veredal.","source":"Centro poblado: OpenStreetMap. Límite oficial pendiente (IGAC / Secretaría de Planeación)."},"geometry":{"type":"Polygon","coordinates":[[[-73.89242,4.96524],[-73.89313,4.96519],[-73.89383,4.96505],[-73.8945,4.96482],[-73.89513,4.96451],[-73.89572,4.96412],[-73.89625,4.96365],[-73.89672,4.96312],[-73.89711,4.96254],[-73.89743,4.9619],[-73.89765,4.96124],[-73.89779,4.96054],[-73.89784,4.95984],[-73.89779,4.95914],[-73.89765,4.95844],[-73.89743,4.95777],[-73.89711,4.95714],[-73.89672,4.95655],[-73.89625,4.95602],[-73.89572,4.95556],[-73.89513,4.95517],[-73.8945,4.95485],[-73.89383,4.95463],[-73.89313,4.95449],[-73.89242,4.95444],[-73.89172,4.95449],[-73.89102,4.95463],[-73.89035,4.95485],[-73.88972,4.95517],[-73.88913,4.95556],[-73.88859,4.95602],[-73.88813,4.95655],[-73.88773,4.95714],[-73.88742,4.95777],[-73.88719,4.95844],[-73.88705,4.95914],[-73.88701,4.95984],[-73.88705,4.96054],[-73.88719,4.96124],[-73.88742,4.9619],[-73.88773,4.96254],[-73.88813,4.96312],[-73.88859,4.96365],[-73.88913,4.96412],[-73.88972,4.96451],[-73.89035,4.96482],[-73.89102,4.96505],[-73.89172,4.96519],[-73.89242,4.96524]]]}},{"type":"Feature","properties":{"official":false,"updated":"2026-10-05","kind":"place","name":"La Esmeralda","description":"Centro poblado — población a alertar.","source":"OpenStreetMap"},"geometry":{"type":"Point","coordinates":[-73.8924232,4.9598394]}}]}