{"type":"FeatureCollection","features":[{"type":"Feature","properties":{"official":false,"updated":"2026-10-05","kind":"zone","name":"Franja de inundación de referencia — Río Bogotá","description":"Franja de 200 m a cada lado del cauce del Río Bogotá a su paso por Tocancipá.","source":"Cauce: OpenStreetMap. Franja calculada; no es el mapa oficial de amenaza (CAR / POMCA Río Bogotá)."},"geometry":{"type":"Polygon","coordinates":[[[-73.96612,4.97454],[-73.96638,4.97404],[-73.9665,4.97342],[-73.96652,4.97286],[-73.96634,4.97224],[-73.96581,4.97158],[-73.96511,4.97119],[-73.9646,4.9696],[-73.96422,4.9691],[-73.96369,4.96873],[-73.96124,4.96771],[-73.96036,4.96749],[-73.95913,4.9676],[-73.95816,4.96703],[-73.95751,4.96685],[-73.95632,4.967],[-73.95524,4.96683],[-73.95476,4.96692],[-73.95417,4.96718],[-73.95334,4.96703],[-73.95207,4.96694],[-73.9514,4.96714],[-73.95086,4.96758],[-73.9504,4.96844],[-73.9503,4.96921],[-73.94969,4.96896],[-73.94874,4.9689],[-73.94789,4.96926],[-73.9474,4.96968],[-73.94632,4.97101],[-73.94583,4.97185],[-73.9455,4.97306],[-73.94544,4.97393],[-73.94478,4.97419],[-73.94436,4.9745],[-73.94396,4.97509],[-73.94384,4.97553],[-73.9432,4.97558],[-73.94283,4.97572],[-73.94251,4.97592],[-73.9418,4.97672],[-73.94078,4.97677],[-73.94088,4.97635],[-73.94138,4.97574],[-73.94209,4.97423],[-73.94215,4.97389],[-73.94207,4.9732],[-73.94172,4.97259],[-73.94123,4.9722],[-73.94118,4.97177],[-73.94087,4.97112],[-73.94033,4.97065],[-73.93919,4.97026],[-73.93888,4.97024],[-73.93797,4.97039],[-73.93803,4.96956],[-73.93795,4.9689],[-73.93764,4.96805],[-73.93714,4.96748],[-73.93646,4.96717],[-73.93608,4.96713],[-73.93525,4.96726],[-73.93461,4.96726],[-73.93318,4.96702],[-73.93278,4.96707],[-73.93189,4.96747],[-73.93122,4.96742],[-73.93057,4.96764],[-73.93004,4.96808],[-73.92948,4.96905],[-73.92932,4.96946],[-73.92927,4.96988],[-73.92902,4.97026],[-73.92859,4.97125],[-73.92857,4.97194],[-73.92814,4.97168],[-73.92795,4.97143],[-73.92782,4.97021],[-73.92763,4.96955],[-73.92568,4.96699],[-73.9254,4.9667],[-73.92458,4.96624],[-73.92422,4.9661],[-73.92337,4.96602],[-73.9226,4.96616],[-73.9218,4.96654],[-73.92048,4.9664],[-73.91946,4.96678],[-73.91891,4.96731],[-73.91785,4.96894],[-73.91666,4.9693],[-73.91597,4.96965],[-73.91572,4.96986],[-73.91524,4.97052],[-73.91467,4.97036],[-73.91427,4.97036],[-73.91315,4.97066],[-73.91251,4.97096],[-73.91204,4.97148],[-73.91189,4.9718],[-73.91173,4.97263],[-73.91164,4.97275],[-73.91115,4.97292],[-73.91058,4.97338],[-73.91006,4.97337],[-73.9097,4.97346],[-73.90794,4.9745],[-73.90742,4.97498],[-73.90707,4.97566],[-73.90636,4.97573],[-73.90542,4.97598],[-73.90479,4.97537],[-73.90438,4.97472],[-73.90366,4.974],[-73.90307,4.97361],[-73.90238,4.97347],[-73.90163,4.97347],[-73.90088,4.97363],[-73.90026,4.97409],[-73.89961,4.9753],[-73.89907,4.97552],[-73.89835,4.97614],[-73.89765,4.97623],[-73.89731,4.97636],[-73.89506,4.97755],[-73.89461,4.97806],[-73.89406,4.979],[-73.8936,4.97911],[-73.89301,4.9795],[-73.89213,4.98074],[-73.89157,4.98127],[-73.89117,4.98183],[-73.89083,4.98194],[-73.8903,4.98227],[-73.88963,4.98196],[-73.88893,4.98195],[-73.88828,4.9822],[-73.88745,4.98275],[-73.88707,4.98322],[-73.88644,4.98436],[-73.88623,4.98503],[-73.88596,4.9853],[-73.88564,4.98594],[-73.88556,4.98732],[-73.88581,4.98801],[-73.8846,4.98805],[-73.88382,4.98826],[-73.88261,4.98923],[-73.88217,4.98978],[-73.88198,4.99046],[-73.88217,4.99233],[-73.88183,4.99265],[-73.88011,4.99376],[-73.87986,4.99403],[-73.8794,4.99486],[-73.87889,4.99655],[-73.87894,4.99737],[-73.87946,4.9983],[-73.88025,4.99888],[-73.88099,4.99914],[-73.88071,4.99956],[-73.88037,5.0005],[-73.87945,5.00077],[-73.87857,5.00123],[-73.87802,5.00167],[-73.87782,5.00196],[-73.87751,5.00284],[-73.87745,5.0036],[-73.87711,5.00471],[-73.87709,5.00545],[-73.87729,5.00604],[-73.87736,5.00678],[-73.87783,5.00808],[-73.8777,5.00943],[-73.87774,5.00976],[-73.87799,5.01037],[-73.87835,5.01076],[-73.87755,5.01299],[-73.87745,5.01338],[-73.87746,5.01394],[-73.87633,5.01493],[-73.87527,5.01548],[-73.87468,5.016],[-73.87438,5.01673],[-73.87422,5.01765],[-73.87298,5.01878],[-73.87267,5.01937],[-73.8726,5.02002],[-73.87266,5.02143],[-73.87257,5.02182],[-73.87134,5.02196],[-73.87076,5.02185],[-73.8704,5.02187],[-73.86973,5.02212],[-73.8692,5.02261],[-73.86903,5.02293],[-73.86887,5.02363],[-73.86898,5.02436],[-73.86729,5.02504],[-73.8669,5.02489],[-73.86652,5.02437],[-73.86624,5.02414],[-73.86591,5.02398],[-73.8653,5.02385],[-73.86455,5.02389],[-73.86419,5.02403],[-73.86388,5.02424],[-73.86354,5.02462],[-73.86292,5.02456],[-73.86224,5.02475],[-73.86099,5.02572],[-73.86066,5.02628],[-73.86054,5.02691],[-73.85899,5.02808],[-73.85713,5.02808],[-73.85648,5.0282],[-73.85592,5.02854],[-73.85486,5.02983],[-73.85439,5.03009],[-73.8534,5.03014],[-73.85241,5.03003],[-73.85173,5.03021],[-73.85142,5.0304],[-73.85095,5.03094],[-73.85057,5.0316],[-73.85034,5.03238],[-73.85069,5.0353],[-73.85092,5.03596],[-73.85138,5.03649],[-73.85202,5.0368],[-73.85272,5.03684],[-73.85339,5.03662],[-73.85392,5.03615],[-73.85423,5.03552],[-73.85427,5.03482],[-73.85412,5.0337],[-73.85496,5.03367],[-73.85573,5.03346],[-73.85698,5.03275],[-73.85802,5.03168],[-73.85961,5.03168],[-73.86038,5.03151],[-73.86273,5.02978],[-73.86352,5.02911],[-73.86399,5.02848],[-73.86495,5.02852],[-73.86558,5.02827],[-73.86656,5.02867],[-73.86793,5.02904],[-73.86829,5.02904],[-73.86897,5.02882],[-73.86952,5.02835],[-73.86976,5.02791],[-73.87206,5.02698],[-73.87234,5.02675],[-73.8727,5.02622],[-73.87334,5.02609],[-73.87366,5.02591],[-73.87421,5.02532],[-73.87481,5.02493],[-73.87531,5.02446],[-73.87589,5.02326],[-73.87622,5.0221],[-73.87627,5.02065],[-73.87695,5.02023],[-73.87739,5.01973],[-73.87763,5.01911],[-73.87778,5.01822],[-73.87848,5.01784],[-73.88042,5.01612],[-73.88081,5.0156],[-73.881,5.01498],[-73.88108,5.01386],[-73.88167,5.01219],[-73.88232,5.01073],[-73.88233,5.00998],[-73.88187,5.00887],[-73.88145,5.00844],[-73.8814,5.00739],[-73.88091,5.006],[-73.88084,5.00523],[-73.88114,5.0048],[-73.8813,5.00412],[-73.88181,5.0042],[-73.88254,5.00416],[-73.8832,5.00388],[-73.88348,5.00365],[-73.88387,5.00304],[-73.88398,5.00234],[-73.88389,5.00179],[-73.88437,5.0019],[-73.88473,5.00188],[-73.88541,5.00164],[-73.88652,5.00076],[-73.88672,5.00052],[-73.88699,4.99995],[-73.88705,4.99903],[-73.88697,4.99868],[-73.8866,4.99805],[-73.88596,4.99743],[-73.88529,4.997],[-73.88448,4.99663],[-73.88416,4.99618],[-73.88367,4.99576],[-73.88424,4.99534],[-73.88533,4.99429],[-73.88571,4.99375],[-73.88587,4.99311],[-73.88572,4.99161],[-73.88714,4.99157],[-73.88778,4.99131],[-73.88828,4.99083],[-73.88963,4.98885],[-73.88978,4.98818],[-73.88972,4.98766],[-73.89076,4.98761],[-73.89146,4.98743],[-73.89176,4.98724],[-73.89224,4.9867],[-73.89246,4.98594],[-73.89298,4.98597],[-73.89334,4.98589],[-73.89397,4.98552],[-73.89441,4.98493],[-73.89456,4.98436],[-73.89495,4.98442],[-73.89565,4.98429],[-73.89652,4.98373],[-73.89693,4.98309],[-73.89716,4.98183],[-73.89715,4.98086],[-73.89746,4.98033],[-73.89864,4.97973],[-73.89965,4.97954],[-73.90029,4.97924],[-73.90075,4.9793],[-73.90149,4.97912],[-73.9026,4.97826],[-73.90386,4.97949],[-73.90457,4.97978],[-73.90534,4.97973],[-73.90708,4.97926],[-73.9081,4.97926],[-73.90883,4.97911],[-73.90943,4.97868],[-73.9103,4.97728],[-73.9106,4.97709],[-73.91155,4.97723],[-73.91188,4.97717],[-73.91247,4.97687],[-73.91318,4.97605],[-73.91382,4.97572],[-73.91409,4.97545],[-73.91502,4.9742],[-73.91586,4.97423],[-73.91666,4.97399],[-73.9173,4.97363],[-73.9182,4.97258],[-73.9197,4.97212],[-73.9204,4.97158],[-73.92138,4.97014],[-73.92223,4.97019],[-73.92331,4.96981],[-73.92427,4.97104],[-73.92437,4.97199],[-73.92465,4.97298],[-73.92546,4.97413],[-73.92609,4.97466],[-73.92605,4.97546],[-73.92629,4.97609],[-73.9265,4.97636],[-73.92726,4.97697],[-73.92787,4.97727],[-73.92821,4.97732],[-73.92888,4.97725],[-73.92922,4.9771],[-73.93037,4.97701],[-73.93094,4.97684],[-73.93235,4.97608],[-73.93324,4.97535],[-73.9337,4.97476],[-73.93385,4.97441],[-73.93391,4.97368],[-73.93382,4.97292],[-73.93376,4.9726],[-73.93346,4.97203],[-73.93272,4.97133],[-73.93282,4.97101],[-73.93347,4.9707],[-73.93432,4.97085],[-73.93432,4.97146],[-73.93442,4.97183],[-73.93483,4.97247],[-73.93642,4.97429],[-73.93705,4.97461],[-73.9375,4.97467],[-73.93756,4.97482],[-73.93666,4.97789],[-73.93673,4.97858],[-73.93706,4.97919],[-73.9376,4.97963],[-73.93889,4.98009],[-73.93958,4.98061],[-73.94027,4.98076],[-73.94085,4.98117],[-73.94156,4.98132],[-73.94192,4.98128],[-73.94249,4.98106],[-73.94312,4.9814],[-73.94388,4.9815],[-73.94452,4.98135],[-73.94535,4.98091],[-73.94725,4.97899],[-73.94761,4.97837],[-73.9477,4.97797],[-73.94774,4.97737],[-73.94768,4.97689],[-73.94825,4.9764],[-73.94875,4.97573],[-73.94888,4.97543],[-73.94907,4.97361],[-73.94963,4.97374],[-73.95019,4.97373],[-73.95103,4.97344],[-73.95181,4.97331],[-73.9525,4.97307],[-73.95345,4.97248],[-73.95366,4.97224],[-73.95408,4.97144],[-73.95479,4.97151],[-73.95515,4.97143],[-73.95549,4.97128],[-73.95613,4.97073],[-73.95643,4.97073],[-73.95707,4.97055],[-73.95778,4.97116],[-73.95811,4.97132],[-73.95903,4.97146],[-73.95967,4.97131],[-73.96004,4.97111],[-73.96149,4.97169],[-73.96151,4.97175],[-73.96099,4.97215],[-73.96067,4.97265],[-73.96048,4.9733],[-73.96047,4.97364],[-73.96058,4.97415],[-73.96089,4.97476],[-73.9614,4.97522],[-73.96215,4.97554],[-73.96087,4.97688],[-73.96049,4.97746],[-73.96021,4.97826],[-73.96023,4.97953],[-73.96035,4.98014],[-73.96057,4.98071],[-73.9611,4.98136],[-73.96219,4.98233],[-73.9617,4.98437],[-73.96174,4.98526],[-73.96183,4.98563],[-73.96236,4.98654],[-73.96309,4.98724],[-73.9624,4.98859],[-73.96233,4.98925],[-73.96243,4.98995],[-73.96275,4.99057],[-73.96329,4.99103],[-73.96396,4.99124],[-73.96431,4.99124],[-73.96499,4.99105],[-73.96529,4.99086],[-73.96574,4.99032],[-73.96596,4.98955],[-73.96648,4.98853],[-73.96678,4.98731],[-73.96681,4.98634],[-73.96656,4.9856],[-73.96618,4.985],[-73.96536,4.98441],[-73.96579,4.9829],[-73.96579,4.98201],[-73.9656,4.98087],[-73.96516,4.98015],[-73.96384,4.979],[-73.96519,4.97756],[-73.96581,4.97667],[-73.9661,4.97572],[-73.96612,4.97454]]]}},{"type":"Feature","properties":{"official":false,"updated":"2026-10-05","kind":"river","name":"Río Bogotá","description":"Cauce principal.","source":"OpenStreetMap"},"geometry":{"type":"LineString","coordinates":[[-73.85248,5.03506],[-73.85241,5.03454],[-73.85218,5.03273],[-73.85214,5.03249],[-73.85252,5.03183],[-73.85331,5.03194],[-73.85488,5.03187],[-73.8556,5.03149],[-73.85601,5.03123],[-73.85638,5.03085],[-73.85713,5.02988],[-73.85811,5.02988],[-73.85961,5.02988],[-73.86096,5.02883],[-73.86156,5.02841],[-73.86235,5.02774],[-73.86235,5.02691],[-73.86306,5.02635],[-73.86397,5.02665],[-73.8646,5.02676],[-73.86487,5.0262],[-73.86502,5.02563],[-73.86528,5.02567],[-73.86543,5.02639],[-73.86641,5.02661],[-73.86708,5.02695],[-73.86809,5.02725],[-73.86828,5.02654],[-73.87001,5.0259],[-73.87106,5.02548],[-73.87091,5.02485],[-73.87068,5.02365],[-73.8714,5.02383],[-73.87196,5.02365],[-73.87252,5.02361],[-73.87264,5.02443],[-73.8729,5.02402],[-73.87384,5.02342],[-73.87425,5.02252],[-73.87447,5.02166],[-73.87447,5.02083],[-73.8744,5.01989],[-73.87554,5.01889],[-73.87585,5.0188],[-73.87616,5.01704],[-73.87676,5.0167],[-73.87729,5.01648],[-73.87842,5.0155],[-73.8792,5.01479],[-73.87928,5.01404],[-73.87924,5.01362],[-73.87962,5.01261],[-73.87999,5.01152],[-73.88056,5.01032],[-73.88037,5.00987],[-73.87992,5.00968],[-73.8795,5.00938],[-73.87965,5.00842],[-73.87963,5.00773],[-73.87926,5.00674],[-73.87912,5.00639],[-73.87908,5.00564],[-73.87887,5.00513],[-73.87903,5.00446],[-73.8795,5.00404],[-73.87924,5.00337],[-73.87941,5.00282],[-73.88029,5.00236],[-73.88122,5.00215],[-73.88181,5.0024],[-73.88218,5.0024],[-73.8821,5.00207],[-73.88202,5.00127],[-73.88231,5.00039],[-73.88269,4.99988],[-73.88305,4.99963],[-73.88338,4.99945],[-73.88365,4.99946],[-73.88388,4.99965],[-73.88424,4.99998],[-73.88448,5.0001],[-73.88463,5.00001],[-73.88502,4.99971],[-73.88524,4.99949],[-73.88526,4.99925],[-73.88498,4.99894],[-73.88431,4.99851],[-73.88362,4.99822],[-73.88333,4.99803],[-73.88305,4.99774],[-73.8828,4.99737],[-73.88273,4.99728],[-73.88261,4.99725],[-73.88242,4.99726],[-73.88205,4.99737],[-73.88173,4.9974],[-73.88141,4.99739],[-73.88117,4.99733],[-73.881,4.99723],[-73.8808,4.99709],[-73.88067,4.99686],[-73.88071,4.99663],[-73.88087,4.99623],[-73.88101,4.99585],[-73.88108,4.99553],[-73.88118,4.99528],[-73.88132,4.99509],[-73.88231,4.99451],[-73.88298,4.99405],[-73.88407,4.993],[-73.88399,4.99237],[-73.88378,4.9906],[-73.88466,4.98985],[-73.88613,4.9898],[-73.8868,4.9898],[-73.88798,4.98812],[-73.88735,4.98707],[-73.88739,4.9864],[-73.8879,4.98611],[-73.88806,4.98523],[-73.88802,4.98523],[-73.88865,4.98409],[-73.88924,4.98372],[-73.88937,4.98405],[-73.8897,4.98451],[-73.88974,4.98464],[-73.88916,4.98544],[-73.88962,4.98586],[-73.89067,4.98581],[-73.89058,4.98477],[-73.89071,4.98418],[-73.89155,4.98359],[-73.8923,4.98359],[-73.89277,4.98418],[-73.89281,4.98258],[-73.89352,4.98191],[-73.89428,4.98078],[-73.89499,4.98262],[-73.89524,4.98246],[-73.89537,4.98157],[-73.89533,4.9804],[-73.89617,4.97897],[-73.89814,4.97796],[-73.89869,4.97792],[-73.89923,4.97779],[-73.90003,4.97704],[-73.9007,4.9775],[-73.90129,4.97704],[-73.90133,4.97582],[-73.90163,4.97527],[-73.90238,4.97527],[-73.9031,4.97599],[-73.90318,4.97653],[-73.90369,4.97679],[-73.90486,4.978],[-73.90684,4.97746],[-73.9081,4.97746],[-73.90868,4.97649],[-73.90889,4.97603],[-73.91011,4.97528],[-73.91032,4.97515],[-73.91137,4.97544],[-73.91155,4.97524],[-73.91168,4.97507],[-73.91197,4.97452],[-73.91268,4.97433],[-73.91317,4.97372],[-73.91346,4.97332],[-73.91359,4.9724],[-73.91411,4.97227],[-73.91446,4.97215],[-73.91523,4.97242],[-73.91564,4.97245],[-73.91585,4.97238],[-73.91619,4.97221],[-73.91657,4.97177],[-73.91701,4.97112],[-73.91742,4.97093],[-73.91888,4.97052],[-73.91907,4.97037],[-73.92006,4.96886],[-73.92043,4.96829],[-73.9207,4.96819],[-73.92124,4.96825],[-73.92193,4.96842],[-73.92272,4.96811],[-73.923,4.96794],[-73.92329,4.96782],[-73.92376,4.96784],[-73.92425,4.96809],[-73.92602,4.97036],[-73.92612,4.97156],[-73.92628,4.97221],[-73.92691,4.97305],[-73.92783,4.97359],[-73.928,4.97435],[-73.92783,4.97515],[-73.92834,4.97553],[-73.92872,4.97485],[-73.92876,4.97456],[-73.92926,4.97494],[-73.92943,4.97532],[-73.93014,4.97523],[-73.93065,4.97498],[-73.93145,4.97452],[-73.93187,4.97418],[-73.93212,4.97389],[-73.93203,4.97313],[-73.93128,4.97246],[-73.93048,4.97229],[-73.93035,4.97166],[-73.93065,4.97103],[-73.93107,4.97061],[-73.93107,4.9699],[-73.93144,4.96921],[-73.93208,4.96938],[-73.93282,4.96902],[-73.93322,4.96882],[-73.93443,4.96906],[-73.93544,4.96906],[-73.93607,4.96893],[-73.93623,4.96944],[-73.93611,4.9712],[-73.93674,4.97183],[-73.93707,4.97233],[-73.93754,4.97288],[-73.93812,4.97238],[-73.93825,4.97217],[-73.93892,4.97204],[-73.93943,4.97221],[-73.93934,4.9728],[-73.93913,4.97355],[-73.93917,4.97401],[-73.93922,4.97397],[-73.9398,4.97406],[-73.94035,4.97376],[-73.93976,4.97494],[-73.93926,4.9754],[-73.93896,4.97662],[-73.93867,4.97733],[-73.93846,4.97805],[-73.93913,4.97826],[-73.93993,4.97855],[-73.94031,4.97897],[-73.94085,4.97897],[-73.94123,4.97851],[-73.94169,4.97851],[-73.94153,4.97926],[-73.94157,4.97952],[-73.94182,4.97935],[-73.94291,4.97821],[-73.94363,4.97733],[-73.94403,4.97732],[-73.94407,4.97776],[-73.94392,4.97852],[-73.94365,4.97924],[-73.94357,4.97958],[-73.94363,4.97967],[-73.94374,4.97971],[-73.94401,4.97963],[-73.9442,4.97952],[-73.94435,4.97935],[-73.94467,4.97904],[-73.94521,4.97842],[-73.94574,4.97801],[-73.94591,4.97775],[-73.94594,4.97751],[-73.94592,4.97726],[-73.94573,4.97658],[-73.94562,4.97615],[-73.94562,4.97579],[-73.94576,4.9757],[-73.9465,4.97552],[-73.94684,4.97528],[-73.94716,4.97488],[-73.94723,4.97434],[-73.94726,4.97345],[-73.94743,4.97269],[-73.94772,4.97214],[-73.9488,4.97081],[-73.94904,4.97067],[-73.94935,4.97073],[-73.94951,4.97092],[-73.94958,4.97119],[-73.94958,4.97146],[-73.94959,4.97172],[-73.94966,4.97184],[-73.94976,4.97195],[-73.9499,4.97196],[-73.95057,4.97168],[-73.95121,4.97161],[-73.9519,4.97137],[-73.95221,4.97117],[-73.95244,4.9707],[-73.95244,4.97039],[-73.9523,4.96998],[-73.9521,4.96932],[-73.95213,4.96895],[-73.95225,4.96873],[-73.95311,4.96881],[-73.95357,4.96887],[-73.95397,4.96909],[-73.95437,4.96953],[-73.95459,4.96972],[-73.95477,4.96956],[-73.95486,4.96911],[-73.95503,4.9688],[-73.95517,4.96867],[-73.95534,4.96863],[-73.95568,4.96867],[-73.95598,4.96882],[-73.95622,4.96894],[-73.95656,4.96883],[-73.95696,4.96868],[-73.95735,4.96864],[-73.95771,4.96882],[-73.9582,4.96914],[-73.95872,4.96963],[-73.95894,4.96966],[-73.9591,4.96959],[-73.95922,4.96945],[-73.95955,4.96933],[-73.96018,4.96928],[-73.96073,4.96944],[-73.96136,4.96971],[-73.96208,4.96999],[-73.96271,4.97024],[-73.96299,4.97042],[-73.96324,4.97124],[-73.96337,4.97163],[-73.96345,4.97217],[-73.96346,4.9726],[-73.96339,4.97281],[-73.96314,4.97305],[-73.96264,4.9732],[-73.96236,4.97332],[-73.96227,4.97349],[-73.96232,4.97367],[-73.96249,4.97377],[-73.96273,4.97377],[-73.96306,4.97361],[-73.96353,4.97328],[-73.96391,4.97295],[-73.96458,4.9729],[-73.96472,4.97303],[-73.9647,4.97326],[-73.96468,4.97344],[-73.96447,4.97377],[-73.96437,4.97405],[-73.96428,4.97437],[-73.96433,4.97479],[-73.96433,4.97535],[-73.96424,4.97578],[-73.96404,4.97613],[-73.9638,4.97642],[-73.96342,4.97682],[-73.96287,4.97741],[-73.96217,4.97813],[-73.96199,4.97858],[-73.962,4.97918],[-73.96212,4.97979],[-73.96237,4.98008],[-73.96284,4.98054],[-73.96374,4.98126],[-73.96389,4.98145],[-73.96399,4.98207],[-73.96401,4.98263],[-73.9639,4.98294],[-73.96388,4.98305],[-73.96386,4.98319],[-73.96378,4.98334],[-73.96357,4.98409],[-73.96348,4.98465],[-73.96353,4.98501],[-73.96389,4.98558],[-73.96416,4.9858],[-73.96453,4.98601],[-73.96488,4.98625],[-73.96502,4.98661],[-73.96498,4.98719],[-73.96488,4.98755],[-73.96474,4.98804],[-73.96454,4.98843],[-73.96428,4.98881],[-73.96413,4.9891],[-73.96416,4.98945]]}},{"type":"Feature","properties":{"official":false,"updated":"2026-10-05","kind":"zone","stream":true,"name":"Ronda de la Quebrada La Esmeralda","description":"Faja de 30 m a cada lado del tramo conocido de la quebrada (ancho máximo de ronda hídrica, Decreto 2811 de 1974, art. 83).","source":"Eje trazado con 3 puntos suministrados por el Comité. No es un mapa oficial de amenaza."},"geometry":{"type":"Polygon","coordinates":[[[-73.90006,4.96553],[-73.90057,4.96788],[-73.90058,4.96793],[-73.90061,4.96797],[-73.90064,4.96801],[-73.90068,4.96805],[-73.90073,4.96807],[-73.90078,4.96809],[-73.90083,4.96809],[-73.90089,4.96808],[-73.90094,4.96807],[-73.90098,4.96804],[-73.90102,4.96801],[-73.90106,4.96797],[-73.90108,4.96792],[-73.9011,4.96787],[-73.9011,4.96782],[-73.90109,4.96776],[-73.90058,4.96538],[-73.90056,4.96532],[-73.90011,4.96445],[-73.90008,4.9644],[-73.90004,4.96436],[-73.9,4.96433],[-73.89995,4.96431],[-73.8999,4.9643],[-73.89985,4.9643],[-73.8998,4.96431],[-73.89975,4.96433],[-73.8997,4.96436],[-73.89966,4.9644],[-73.89963,4.96444],[-73.89961,4.96449],[-73.8996,4.96454],[-73.8996,4.96459],[-73.89961,4.96464],[-73.89963,4.96469],[-73.90006,4.96553]]]}},{"type":"Feature","properties":{"official":false,"updated":"2026-10-05","kind":"stream","name":"Quebrada La Esmeralda","description":"Tramo conocido (379 m) entre los 3 puntos suministrados por el Comité.","source":"Puntos GPS del Comité de Gestión del Riesgo. Trazado recto entre puntos; falta levantar el cauce completo."},"geometry":{"type":"LineString","coordinates":[[-73.89987,4.96457],[-73.90032,4.96544],[-73.90083,4.96782]]}},{"type":"Feature","properties":{"official":false,"updated":"2026-10-05","kind":"stream-est","name":"Quebrada La Esmeralda — conexión estimada","description":"Conexión supuesta en línea recta (833 m) hasta el Río Bogotá. El recorrido real no está levantado.","source":"Estimado. Reemplazar con puntos del cauce real."},"geometry":{"type":"LineString","coordinates":[[-73.90083,4.96782],[-73.90163,4.97527]]}}]}